{"type": "FeatureCollection", "features": [ {"type": "Feature", "properties": {"norad_id": 42989, "name": "SKYSAT-C9", "group": "resource", "lat": 32.85684264619371, "lon": 100.50602798838662, "alt_km": 457.5351057438065, "timestamp": "2025-12-01T03:58:49.208042+00:00", "meta": {"OBJECT_NAME": "SKYSAT-C9", "OBJECT_ID": "2017-068C", "EPOCH": "2025-11-30T18:27:09.438336", "MEAN_MOTION": 15.35576656, "ECCENTRICITY": 0.0010603, "INCLINATION": 97.4177, "RA_OF_ASC_NODE": 104.9332, "ARG_OF_PERICENTER": 126.761, "MEAN_ANOMALY": 233.4608, "EPHEMERIS_TYPE": 0, "CLASSIFICATION_TYPE": "U", "NORAD_CAT_ID": 42989, "ELEMENT_SET_NO": 999, "REV_AT_EPOCH": 45224, "BSTAR": 0.00042803, "MEAN_MOTION_DOT": 0.00014758, "MEAN_MOTION_DDOT": 0, "GROUP": "resource"}, "tle": {"line1": "1 42989U 17068C   25334.76885924  .00014758  00000+0  42803-3 0  9994", "line2": "2 42989  97.4177 104.9332 0010603 126.7610 233.4608 15.35576656452246"}}, "geometry": {"type": "Point", "coordinates": [100.50602798838662, 32.85684264619371]}}, {"type": "Feature", "properties": {"norad_id": 42990, "name": "SKYSAT-C8", "group": "resource", "lat": 46.30810183235573, "lon": -67.03320074194527, "alt_km": 464.76508445426043, "timestamp": "2025-12-01T03:58:49.208052+00:00", "meta": {"OBJECT_NAME": "SKYSAT-C8", "OBJECT_ID": "2017-068D", "EPOCH": "2025-11-30T19:33:58.876128", "MEAN_MOTION": 15.32516447, "ECCENTRICITY": 0.0002312, "INCLINATION": 97.4266, "RA_OF_ASC_NODE": 104.7675, "ARG_OF_PERICENTER": 27.2986, "MEAN_ANOMALY": 332.8377, "EPHEMERIS_TYPE": 0, "CLASSIFICATION_TYPE": "U", "NORAD_CAT_ID": 42990, "ELEMENT_SET_NO": 999, "REV_AT_EPOCH": 45188, "BSTAR": 0.00040045, "MEAN_MOTION_DOT": 0.00012502, "MEAN_MOTION_DDOT": 0, "GROUP": "resource"}, "tle": {"line1": "1 42990U 17068D   25334.81526477  .00012502  00000+0  40045-3 0  9998", "line2": "2 42990  97.4266 104.7675 0002312  27.2986 332.8377 15.32516447451889"}}, "geometry": {"type": "Point", "coordinates": [-67.03320074194527, 46.30810183235573]}}, {"type": "Feature", "properties": {"norad_id": 42991, "name": "SKYSAT-C7", "group": "resource", "lat": 12.82653932389034, "lon": 104.4680097276295, "alt_km": 470.37921855113655, "timestamp": "2025-12-01T03:58:49.208062+00:00", "meta": {"OBJECT_NAME": "SKYSAT-C7", "OBJECT_ID": "2017-068E", "EPOCH": "2025-11-30T20:05:08.594592", "MEAN_MOTION": 15.31926743, "ECCENTRICITY": 0.0007907, "INCLINATION": 97.4274, "RA_OF_ASC_NODE": 105.8403, "ARG_OF_PERICENTER": 94.1878, "MEAN_ANOMALY": 266.0267, "EPHEMERIS_TYPE": 0, "CLASSIFICATION_TYPE": "U", "NORAD_CAT_ID": 42991, "ELEMENT_SET_NO": 999, "REV_AT_EPOCH": 45195, "BSTAR": 0.00039482, "MEAN_MOTION_DOT": 0.0001211, "MEAN_MOTION_DDOT": 0, "GROUP": "resource"}, "tle": {"line1": "1 42991U 17068E   25334.83690503  .00012110  00000+0  39482-3 0  9991", "line2": "2 42991  97.4274 105.8403 0007907  94.1878 266.0267 15.31926743451955"}}, "geometry": {"type": "Point", "coordinates": [104.4680097276295, 12.82653932389034]}}, {"type": "Feature", "properties": {"norad_id": 42992, "name": "SKYSAT-C6", "group": "resource", "lat": 15.195788205201946, "lon": -71.35070942223433, "alt_km": 471.1325229791155, "timestamp": "2025-12-01T03:58:49.208071+00:00", "meta": {"OBJECT_NAME": "SKYSAT-C6", "OBJECT_ID": "2017-068F", "EPOCH": "2025-11-30T19:25:18.590016", "MEAN_MOTION": 15.31106125, "ECCENTRICITY": 0.0005104, "INCLINATION": 97.4308, "RA_OF_ASC_NODE": 106.2605, "ARG_OF_PERICENTER": 116.4113, "MEAN_ANOMALY": 243.7653, "EPHEMERIS_TYPE": 0, "CLASSIFICATION_TYPE": "U", "NORAD_CAT_ID": 42992, "ELEMENT_SET_NO": 999, "REV_AT_EPOCH": 45193, "BSTAR": 0.00038426, "MEAN_MOTION_DOT": 0.00011479, "MEAN_MOTION_DDOT": 0, "GROUP": "resource"}, "tle": {"line1": "1 42992U 17068F   25334.80924294  .00011479  00000+0  38426-3 0  9990", "line2": "2 42992  97.4308 106.2605 0005104 116.4113 243.7653 15.31106125451933"}}, "geometry": {"type": "Point", "coordinates": [-71.35070942223433, 15.195788205201946]}}, {"type": "Feature", "properties": {"norad_id": 43111, "name": "CARTOSAT-2F", "group": "resource", "lat": 51.53965976235643, "lon": 23.52873234139705, "alt_km": 503.7891414539163, "timestamp": "2025-12-01T03:58:49.208099+00:00", "meta": {"OBJECT_NAME": "CARTOSAT-2F", "OBJECT_ID": "2018-004A", "EPOCH": "2025-11-28T04:37:11.650080", "MEAN_MOTION": 15.19277789, "ECCENTRICITY": 7.695e-05, "INCLINATION": 97.434, "RA_OF_ASC_NODE": 30.0638, "ARG_OF_PERICENTER": 229.2981, "MEAN_ANOMALY": 130.8187, "EPHEMERIS_TYPE": 0, "CLASSIFICATION_TYPE": "U", "NORAD_CAT_ID": 43111, "ELEMENT_SET_NO": 999, "REV_AT_EPOCH": 43681, "BSTAR": 5.842651e-05, "MEAN_MOTION_DOT": 1.165e-05, "MEAN_MOTION_DDOT": 0, "GROUP": "resource"}, "tle": {"line1": "1 43111U 18004A   25332.19249595  .00001165  00000+0  58427-4 0  9994", "line2": "2 43111  97.4340  30.0638 0000769 229.2981 130.8187 15.19277789436810"}}, "geometry": {"type": "Point", "coordinates": [23.52873234139705, 51.53965976235643]}}, {"type": "Feature", "properties": {"norad_id": 43259, "name": "GAOFEN-1 02", "group": "resource", "lat": 21.12740776491944, "lon": -143.90251013632354, "alt_km": 640.8688546322046, "timestamp": "2025-12-01T03:58:49.208117+00:00", "meta": {"OBJECT_NAME": "GAOFEN-1 02", "OBJECT_ID": "2018-031A", "EPOCH": "2025-11-30T20:45:30.207744", "MEAN_MOTION": 14.76439409, "ECCENTRICITY": 0.0001281, "INCLINATION": 98.0823, "RA_OF_ASC_NODE": 32.6487, "ARG_OF_PERICENTER": 274.3235, "MEAN_ANOMALY": 85.7828, "EPHEMERIS_TYPE": 0, "CLASSIFICATION_TYPE": "U", "NORAD_CAT_ID": 43259, "ELEMENT_SET_NO": 999, "REV_AT_EPOCH": 41343, "BSTAR": 0.00015115, "MEAN_MOTION_DOT": 9.99e-06, "MEAN_MOTION_DDOT": 0, "GROUP": "resource"}, "tle": {"line1": "1 43259U 18031A   25334.86493296  .00000999  00000+0  15115-3 0  9992", "line2": "2 43259  98.0823  32.6487 0001281 274.3235  85.7828 14.76439409413433"}}, "geometry": {"type": "Point", "coordinates": [-143.90251013632354, 21.12740776491944]}}, {"type": "Feature", "properties": {"norad_id": 43260, "name": "GAOFEN-1 03", "group": "resource", "lat": -79.60664129774509, "lon": 83.60715086885277, "alt_km": 647.379406945186, "timestamp": "2025-12-01T03:58:49.208128+00:00", "meta": {"OBJECT_NAME": "GAOFEN-1 03", "OBJECT_ID": "2018-031B", "EPOCH": "2025-11-28T01:32:28.259808", "MEAN_MOTION": 14.76498173, "ECCENTRICITY": 0.00027871, "INCLINATION": 98.0818, "RA_OF_ASC_NODE": 29.7254, "ARG_OF_PERICENTER": 6.5663, "MEAN_ANOMALY": 353.5582, "EPHEMERIS_TYPE": 0, "CLASSIFICATION_TYPE": "U", "NORAD_CAT_ID": 43260, "ELEMENT_SET_NO": 999, "REV_AT_EPOCH": 41301, "BSTAR": 0.00017190576, "MEAN_MOTION_DOT": 1.145e-05, "MEAN_MOTION_DDOT": 0, "GROUP": "resource"}, "tle": {"line1": "1 43260U 18031B   25332.06421597  .00001145  00000+0  17191-3 0  9999", "line2": "2 43260  98.0818  29.7254 0002787   6.5663 353.5582 14.76498173413010"}}, "geometry": {"type": "Point", "coordinates": [83.60715086885277, -79.60664129774509]}}, {"type": "Feature", "properties": {"norad_id": 43262, "name": "GAOFEN-1 04", "group": "resource", "lat": 43.56310169191996, "lon": 25.22872655258272, "alt_km": 636.0938565487868, "timestamp": "2025-12-01T03:58:49.208139+00:00", "meta": {"OBJECT_NAME": "GAOFEN-1 04", "OBJECT_ID": "2018-031D", "EPOCH": "2025-11-30T21:16:30.206208", "MEAN_MOTION": 14.76408954, "ECCENTRICITY": 0.000144, "INCLINATION": 98.0825, "RA_OF_ASC_NODE": 32.7165, "ARG_OF_PERICENTER": 64.3409, "MEAN_ANOMALY": 295.7949, "EPHEMERIS_TYPE": 0, "CLASSIFICATION_TYPE": "U", "NORAD_CAT_ID": 43262, "ELEMENT_SET_NO": 999, "REV_AT_EPOCH": 41342, "BSTAR": 0.0001529, "MEAN_MOTION_DOT": 1.011e-05, "MEAN_MOTION_DDOT": 0, "GROUP": "resource"}, "tle": {"line1": "1 43262U 18031D   25334.88646072  .00001011  00000+0  15290-3 0  9990", "line2": "2 43262  98.0825  32.7165 0001440  64.3409 295.7949 14.76408954413427"}}, "geometry": {"type": "Point", "coordinates": [25.22872655258272, 43.56310169191996]}}, {"type": "Feature", "properties": {"norad_id": 43437, "name": "SENTINEL-3B", "group": "resource", "lat": 60.809040387095884, "lon": -123.713420980019, "alt_km": 795.6824277488349, "timestamp": "2025-12-01T03:58:49.208150+00:00", "meta": {"OBJECT_NAME": "SENTINEL-3B", "OBJECT_ID": "2018-039A", "EPOCH": "2025-11-30T19:00:50.226336", "MEAN_MOTION": 14.26735256, "ECCENTRICITY": 0.0001458, "INCLINATION": 98.6283, "RA_OF_ASC_NODE": 40.1479, "ARG_OF_PERICENTER": 114.0674, "MEAN_ANOMALY": 246.0659, "EPHEMERIS_TYPE": 0, "CLASSIFICATION_TYPE": "U", "NORAD_CAT_ID": 43437, "ELEMENT_SET_NO": 999, "REV_AT_EPOCH": 39583, "BSTAR": 7.6648e-05, "MEAN_MOTION_DOT": 1.42e-06, "MEAN_MOTION_DDOT": 0, "GROUP": "resource"}, "tle": {"line1": "1 43437U 18039A   25334.79224799  .00000142  00000+0  76648-4 0  9999", "line2": "2 43437  98.6283  40.1479 0001458 114.0674 246.0659 14.26735256395836"}}, "geometry": {"type": "Point", "coordinates": [-123.713420980019, 60.809040387095884]}}, {"type": "Feature", "properties": {"norad_id": 43461, "name": "GAOFEN-5 01", "group": "resource", "lat": 32.89227627486772, "lon": 123.43665329854164, "alt_km": 690.7228838679011, "timestamp": "2025-12-01T03:58:49.208161+00:00", "meta": {"OBJECT_NAME": "GAOFEN-5 01", "OBJECT_ID": "2018-043A", "EPOCH": "2025-11-30T20:44:01.856832", "MEAN_MOTION": 14.6038753, "ECCENTRICITY": 0.0001742, "INCLINATION": 98.431, "RA_OF_ASC_NODE": 297.6251, "ARG_OF_PERICENTER": 16.9068, "MEAN_ANOMALY": 343.219, "EPHEMERIS_TYPE": 0, "CLASSIFICATION_TYPE": "U", "NORAD_CAT_ID": 43461, "ELEMENT_SET_NO": 999, "REV_AT_EPOCH": 40274, "BSTAR": 0.00011245, "MEAN_MOTION_DOT": 4.95e-06, "MEAN_MOTION_DDOT": 0, "GROUP": "resource"}, "tle": {"line1": "1 43461U 18043A   25334.86391038  .00000495  00000+0  11245-3 0  9992", "line2": "2 43461  98.4310 297.6251 0001742  16.9068 343.2190 14.60387530402747"}}, "geometry": {"type": "Point", "coordinates": [123.43665329854164, 32.89227627486772]}}]}